{
  "type": "FeatureCollection",
  "features": [
    {
      "type": "Feature",
      "properties": {
        "norad_id": 58654,
        "name": "BEIDOU-3 M28 (C50)",
        "group": "beidou",
        "lat": 7.745033102541233,
        "lon": -116.56651066985873,
        "alt_km": 21528.200472321278,
        "timestamp": "2025-12-07T20:38:14.329543+00:00",
        "meta_object_name": "BEIDOU-3 M28 (C50)",
        "meta_object_id": "2023-207A",
        "meta_epoch": "2025-12-06T12:45:22.310208",
        "meta_mean_motion": 1.86229594,
        "meta_eccentricity": 0.00021908,
        "meta_inclination": 55.5792,
        "meta_ra_of_asc_node": 68.8117,
        "meta_arg_of_pericenter": 267.5881,
        "meta_mean_anomaly": 92.402,
        "meta_ephemeris_type": 0,
        "meta_classification_type": "U",
        "meta_norad_cat_id": 58654,
        "meta_element_set_no": 999,
        "meta_rev_at_epoch": 1325,
        "meta_bstar": 0,
        "meta_mean_motion_dot": -4.7e-07,
        "meta_mean_motion_ddot": 0,
        "tle_line1": "1 58654U 23207A   25340.53150822 -.00000047  00000+0  00000+0 0  9992",
        "tle_line2": "2 58654  55.5792  68.8117 0002190 267.5881  92.4020  1.86229594 13257"
      },
      "geometry": {
        "type": "Point",
        "coordinates": [
          -116.56651066985873,
          7.745033102541233
        ]
      }
    },
    {
      "type": "Feature",
      "properties": {
        "norad_id": 58655,
        "name": "BEIDOU-3 M26 (C48)",
        "group": "beidou",
        "lat": -41.718113989863525,
        "lon": 31.14912808705054,
        "alt_km": 21526.97818231139,
        "timestamp": "2025-12-07T20:38:14.329554+00:00",
        "meta_object_name": "BEIDOU-3 M26 (C48)",
        "meta_object_id": "2023-207B",
        "meta_epoch": "2025-12-06T07:54:02.813472",
        "meta_mean_motion": 1.86231106,
        "meta_eccentricity": 0.00035957,
        "meta_inclination": 55.5812,
        "meta_ra_of_asc_node": 68.8048,
        "meta_arg_of_pericenter": 252.9675,
        "meta_mean_anomaly": 107.0074,
        "meta_ephemeris_type": 0,
        "meta_classification_type": "U",
        "meta_norad_cat_id": 58655,
        "meta_element_set_no": 999,
        "meta_rev_at_epoch": 1323,
        "meta_bstar": 0,
        "meta_mean_motion_dot": -4.8e-07,
        "meta_mean_motion_ddot": 0,
        "tle_line1": "1 58655U 23207B   25340.32919923 -.00000048  00000+0  00000+0 0  9996",
        "tle_line2": "2 58655  55.5812  68.8048 0003595 252.9675 107.0074  1.86231106 13235"
      },
      "geometry": {
        "type": "Point",
        "coordinates": [
          31.14912808705054,
          -41.718113989863525
        ]
      }
    },
    {
      "type": "Feature",
      "properties": {
        "norad_id": 61186,
        "name": "BEIDOU-3 M25 (C47)",
        "group": "beidou",
        "lat": 46.728964421493025,
        "lon": -2.229423570913862,
        "alt_km": 21531.94797682637,
        "timestamp": "2025-12-07T20:38:14.329566+00:00",
        "meta_object_name": "BEIDOU-3 M25 (C47)",
        "meta_object_id": "2024-168B",
        "meta_epoch": "2025-12-07T05:53:04.008192",
        "meta_mean_motion": 1.86229774,
        "meta_eccentricity": 0.00054576,
        "meta_inclination": 54.6469,
        "meta_ra_of_asc_node": 308.9099,
        "meta_arg_of_pericenter": 295.3065,
        "meta_mean_anomaly": 75.7113,
        "meta_ephemeris_type": 0,
        "meta_classification_type": "U",
        "meta_norad_cat_id": 61186,
        "meta_element_set_no": 999,
        "meta_rev_at_epoch": 821,
        "meta_bstar": 0,
        "meta_mean_motion_dot": -7.1e-07,
        "meta_mean_motion_ddot": 0,
        "tle_line1": "1 61186U 24168B   25341.24518528 -.00000071  00000+0  00000+0 0  9990",
        "tle_line2": "2 61186  54.6469 308.9099 0005457 295.3065  75.7113  1.86229774  8218"
      },
      "geometry": {
        "type": "Point",
        "coordinates": [
          -2.229423570913862,
          46.728964421493025
        ]
      }
    },
    {
      "type": "Feature",
      "properties": {
        "norad_id": 61187,
        "name": "BEIDOU-3 M27 (C49)",
        "group": "beidou",
        "lat": -14.698187991386186,
        "lon": 139.57783827605436,
        "alt_km": 21534.714390474062,
        "timestamp": "2025-12-07T20:38:14.329577+00:00",
        "meta_object_name": "BEIDOU-3 M27 (C49)",
        "meta_object_id": "2024-168C",
        "meta_epoch": "2025-12-07T02:45:45.916992",
        "meta_mean_motion": 1.86229917,
        "meta_eccentricity": 0.00022869,
        "meta_inclination": 54.6424,
        "meta_ra_of_asc_node": 308.8981,
        "meta_arg_of_pericenter": 332.2687,
        "meta_mean_anomaly": 86.4832,
        "meta_ephemeris_type": 0,
        "meta_classification_type": "U",
        "meta_norad_cat_id": 61187,
        "meta_element_set_no": 999,
        "meta_rev_at_epoch": 568,
        "meta_bstar": 0,
        "meta_mean_motion_dot": -7.1e-07,
        "meta_mean_motion_ddot": 0,
        "tle_line1": "1 61187U 24168C   25341.11511478 -.00000071  00000+0  00000+0 0  9994",
        "tle_line2": "2 61187  54.6424 308.8981 0002286 332.2687  86.4832  1.86229917  5681"
      },
      "geometry": {
        "type": "Point",
        "coordinates": [
          139.57783827605436,
          -14.698187991386186
        ]
      }
    }
  ]
}